[{"OBJECT_NAME":"NORSAT 3","OBJECT_ID":"2021-034E","EPOCH":"2026-03-09T22:23:32.431200","MEAN_MOTION":15.04338407,"ECCENTRICITY":0.0005858,"INCLINATION":97.5427,"RA_OF_ASC_NODE":128.5959,"ARG_OF_PERICENTER":280.8366,"MEAN_ANOMALY":79.2201,"EPHEMERIS_TYPE":0,"CLASSIFICATION_TYPE":"U","NORAD_CAT_ID":48272,"ELEMENT_SET_NO":999,"REV_AT_EPOCH":26491,"BSTAR":0.00030361478,"MEAN_MOTION_DOT":4.174e-5,"MEAN_MOTION_DDOT":0},{"OBJECT_NAME":"STARLINK-4350","OBJECT_ID":"2022-077C","EPOCH":"2026-03-09T22:20:49.918848","MEAN_MOTION":15.0565129,"ECCENTRICITY":0.00015783,"INCLINATION":97.6027,"RA_OF_ASC_NODE":251.4606,"ARG_OF_PERICENTER":86.2761,"MEAN_ANOMALY":273.8646,"EPHEMERIS_TYPE":0,"CLASSIFICATION_TYPE":"U","NORAD_CAT_ID":53045,"ELEMENT_SET_NO":999,"REV_AT_EPOCH":20102,"BSTAR":1.9001185e-5,"MEAN_MOTION_DOT":2.13e-6,"MEAN_MOTION_DDOT":0}]
